start=new Date('2022-08-11T00:00:00.000Z').valueOf();
sats=[{"EPHEMERIS_TYPE":"0","DECAY_DATE":null,"COUNTRY_CODE":"US","APOAPSIS":"548.336","LAUNCH_DATE":"2021-01-20","NORAD_CAT_ID":"47407","ELEMENT_SET_NO":"999","GP_ID":"209995507","ECCENTRICITY":"0.00015610","BSTAR":"-0.00005600400000","MEAN_ANOMALY":"290.9061","REV_AT_EPOCH":"8649","OBJECT_TYPE":"PAYLOAD","TIME_SYSTEM":"UTC","INCLINATION":"53.0542","ARG_OF_PERICENTER":"69.2095","FILE":"3533963","PERIAPSIS":"546.174","EPOCH":"2022-08-10T20:54:39.713472","RCS_SIZE":"LARGE","MEAN_ELEMENT_THEORY":"SGP4","SITE":"AFETR","REF_FRAME":"TEME","CLASSIFICATION_TYPE":"U","OBJECT_NAME":"STARLINK-2134","TLE_LINE2":"2 47407  53.0542 138.1636 0001561  69.2095 290.9061 15.06386433 86498","TLE_LINE1":"1 47407U 21005BL  22222.87129298 -.00001115  00000-0 -56004-4 0  9995","CENTER_NAME":"EARTH","RA_OF_ASC_NODE":"138.1636","OBJECT_ID":"2021-005BL","PERIOD":"95.593","MEAN_MOTION_DDOT":"0.0000000000000","MEAN_MOTION":"15.06386433","SEMIMAJOR_AXIS":"6925.390","MEAN_MOTION_DOT":"-0.00001115"},{"ECCENTRICITY":"0.00013840","GP_ID":"209995736","ELEMENT_SET_NO":"999","NORAD_CAT_ID":"47408","LAUNCH_DATE":"2021-01-20","DECAY_DATE":null,"COUNTRY_CODE":"US","APOAPSIS":"548.179","EPHEMERIS_TYPE":"0","EPOCH":"2022-08-10T17:01:06.983904","PERIAPSIS":"546.263","ARG_OF_PERICENTER":"80.6866","FILE":"3533963","TIME_SYSTEM":"UTC","INCLINATION":"53.0541","OBJECT_TYPE":"PAYLOAD","REV_AT_EPOCH":"8647","BSTAR":"-0.00006637500000","MEAN_ANOMALY":"279.4280","OBJECT_NAME":"STARLINK-2135","TLE_LINE2":"2 47408  53.0541 138.8952 0001384  80.6866 279.4280 15.06397573 86472","CLASSIFICATION_TYPE":"U","REF_FRAME":"TEME","SITE":"AFETR","MEAN_ELEMENT_THEORY":"SGP4","RCS_SIZE":"LARGE","SEMIMAJOR_AXIS":"6925.356","MEAN_MOTION_DOT":"-0.00001270","MEAN_MOTION":"15.06397573","MEAN_MOTION_DDOT":"0.0000000000000","OBJECT_ID":"2021-005BM","PERIOD":"95.592","CENTER_NAME":"EARTH","RA_OF_ASC_NODE":"138.8952","TLE_LINE1":"1 47408U 21005BM  22222.70910861 -.00001270  00000-0 -66375-4 0  9996"},{"REF_FRAME":"TEME","SITE":"AFETR","MEAN_ELEMENT_THEORY":"SGP4","RCS_SIZE":"LARGE","OBJECT_NAME":"STARLINK-1782","TLE_LINE2":"2 47548  53.0554 118.2698 0001753  71.8539 288.2641 15.06402933 83966","CLASSIFICATION_TYPE":"U","MEAN_MOTION_DDOT":"0.0000000000000","OBJECT_ID":"2021-009A","PERIOD":"95.592","CENTER_NAME":"EARTH","RA_OF_ASC_NODE":"118.2698","TLE_LINE1":"1 47548U 21009A   22222.84733042 -.00001599  00000-0 -88469-4 0  9996","SEMIMAJOR_AXIS":"6925.340","MEAN_MOTION_DOT":"-0.00001599","MEAN_MOTION":"15.06402933","NORAD_CAT_ID":"47548","LAUNCH_DATE":"2021-02-04","COUNTRY_CODE":"US","DECAY_DATE":null,"APOAPSIS":"548.419","EPHEMERIS_TYPE":"0","ECCENTRICITY":"0.00017530","GP_ID":"209996251","ELEMENT_SET_NO":"999","ARG_OF_PERICENTER":"71.8539","FILE":"3533963","TIME_SYSTEM":"UTC","INCLINATION":"53.0554","OBJECT_TYPE":"PAYLOAD","BSTAR":"-0.00008846900000","REV_AT_EPOCH":"8396","MEAN_ANOMALY":"288.2641","EPOCH":"2022-08-10T20:20:09.348288","PERIAPSIS":"545.991"},{"NORAD_CAT_ID":"47549","LAUNCH_DATE":"2021-02-04","DECAY_DATE":null,"COUNTRY_CODE":"US","APOAPSIS":"548.263","EPHEMERIS_TYPE":"0","ECCENTRICITY":"0.00014980","GP_ID":"209995021","ELEMENT_SET_NO":"999","ARG_OF_PERICENTER":"69.8815","FILE":"3533963","TIME_SYSTEM":"UTC","INCLINATION":"53.0533","OBJECT_TYPE":"PAYLOAD","BSTAR":"-0.00007186300000","REV_AT_EPOCH":"8394","MEAN_ANOMALY":"290.2335","EPOCH":"2022-08-10T17:03:46.323648","PERIAPSIS":"546.188","REF_FRAME":"TEME","SITE":"AFETR","MEAN_ELEMENT_THEORY":"SGP4","RCS_SIZE":"LARGE","OBJECT_NAME":"STARLINK-1806","TLE_LINE2":"2 47549  53.0533 118.8772 0001498  69.8815 290.2335 15.06396204 83947","CLASSIFICATION_TYPE":"U","MEAN_MOTION_DDOT":"0.0000000000000","OBJECT_ID":"2021-009B","PERIOD":"95.592","CENTER_NAME":"EARTH","RA_OF_ASC_NODE":"118.8772","TLE_LINE1":"1 47549U 21009B   22222.71095282 -.00001352  00000-0 -71863-4 0  9997","SEMIMAJOR_AXIS":"6925.360","MEAN_MOTION_DOT":"-0.00001352","MEAN_MOTION":"15.06396204"},{"RCS_SIZE":"LARGE","MEAN_ELEMENT_THEORY":"SGP4","SITE":"AFETR","REF_FRAME":"TEME","CLASSIFICATION_TYPE":"U","OBJECT_NAME":"STARLINK-1909","TLE_LINE2":"2 47550  53.0531 108.5176 0001581  53.9989 306.1146 15.06380953 84098","TLE_LINE1":"1 47550U 21009C   22222.78929482 -.00003342  00000-0 -20564-3 0  9996","CENTER_NAME":"EARTH","RA_OF_ASC_NODE":"108.5176","OBJECT_ID":"2021-009C","PERIOD":"95.593","MEAN_MOTION_DDOT":"0.0000000000000","MEAN_MOTION":"15.06380953","MEAN_MOTION_DOT":"-0.00003342","SEMIMAJOR_AXIS":"6925.407","EPHEMERIS_TYPE":"0","DECAY_DATE":null,"COUNTRY_CODE":"US","APOAPSIS":"548.367","LAUNCH_DATE":"2021-02-04","NORAD_CAT_ID":"47550","ELEMENT_SET_NO":"999","GP_ID":"209995271","ECCENTRICITY":"0.00015810","BSTAR":"-0.00020564000000","REV_AT_EPOCH":"8409","MEAN_ANOMALY":"306.1146","OBJECT_TYPE":"PAYLOAD","TIME_SYSTEM":"UTC","INCLINATION":"53.0531","FILE":"3533963","ARG_OF_PERICENTER":"53.9989","PERIAPSIS":"546.177","EPOCH":"2022-08-10T18:56:35.072448"},{"RA_OF_ASC_NODE":"128.2633","CENTER_NAME":"EARTH","TLE_LINE1":"1 47551U 21009D   22222.85009464 -.00013565  00000-0 -89338-3 0  9996","MEAN_MOTION_DDOT":"0.0000000000000","PERIOD":"95.592","OBJECT_ID":"2021-009D","MEAN_MOTION":"15.06402303","SEMIMAJOR_AXIS":"6925.341","MEAN_MOTION_DOT":"-0.00013565","MEAN_ELEMENT_THEORY":"SGP4","RCS_SIZE":"LARGE","REF_FRAME":"TEME","SITE":"AFETR","TLE_LINE2":"2 47551  53.0534 128.2633 0001868  74.6355 285.4840 15.06402303 83828","OBJECT_NAME":"STARLINK-1938","CLASSIFICATION_TYPE":"U","OBJECT_TYPE":"PAYLOAD","REV_AT_EPOCH":"8382","BSTAR":"-0.00089338000000","MEAN_ANOMALY":"285.4840","ARG_OF_PERICENTER":"74.6355","FILE":"3533963","INCLINATION":"53.0534","TIME_SYSTEM":"UTC","PERIAPSIS":"545.913","EPOCH":"2022-08-10T20:24:08.176896","APOAPSIS":"548.500","DECAY_DATE":null,"COUNTRY_CODE":"US","EPHEMERIS_TYPE":"0","NORAD_CAT_ID":"47551","LAUNCH_DATE":"2021-02-04","ELEMENT_SET_NO":"999","ECCENTRICITY":"0.00018680","GP_ID":"209995523"},{"EPOCH":"2022-08-10T20:30:45.565056","PERIAPSIS":"545.575","TIME_SYSTEM":"UTC","INCLINATION":"53.0545","ARG_OF_PERICENTER":"91.0133","FILE":"3533963","REV_AT_EPOCH":"8396","BSTAR":"-0.00047802000000","MEAN_ANOMALY":"269.1121","OBJECT_TYPE":"PAYLOAD","GP_ID":"209995752","ECCENTRICITY":"0.00023120","ELEMENT_SET_NO":"999","LAUNCH_DATE":"2021-02-04","NORAD_CAT_ID":"47552","EPHEMERIS_TYPE":"0","DECAY_DATE":null,"COUNTRY_CODE":"US","APOAPSIS":"548.777","MEAN_MOTION_DOT":"-0.00007397","SEMIMAJOR_AXIS":"6925.311","MEAN_MOTION":"15.06412165","OBJECT_ID":"2021-009E","PERIOD":"95.591","MEAN_MOTION_DDOT":"0.0000000000000","TLE_LINE1":"1 47552U 21009E   22222.85469404 -.00007397  00000-0 -47802-3 0  9997","CENTER_NAME":"EARTH","RA_OF_ASC_NODE":"118.2433","CLASSIFICATION_TYPE":"U","OBJECT_NAME":"STARLINK-1940","TLE_LINE2":"2 47552  53.0545 118.2433 0002312  91.0133 269.1121 15.06412165 83963","SITE":"AFETR","REF_FRAME":"TEME","RCS_SIZE":"LARGE","MEAN_ELEMENT_THEORY":"SGP4"},{"CENTER_NAME":"EARTH","RA_OF_ASC_NODE":"138.5010","TLE_LINE1":"1 47554U 21009G   22222.79389037  .00001702  00000-0  13318-3 0  9992","MEAN_MOTION_DDOT":"0.0000000000000","OBJECT_ID":"2021-009G","PERIOD":"95.593","MEAN_MOTION":"15.06378811","SEMIMAJOR_AXIS":"6925.413","MEAN_MOTION_DOT":"0.00001702","MEAN_ELEMENT_THEORY":"SGP4","RCS_SIZE":"LARGE","REF_FRAME":"TEME","SITE":"AFETR","OBJECT_NAME":"STARLINK-1953","TLE_LINE2":"2 47554  53.0540 138.5010 0001251  70.9252 289.1872 15.06378811 83677","CLASSIFICATION_TYPE":"U","OBJECT_TYPE":"PAYLOAD","REV_AT_EPOCH":"8367","BSTAR":"0.00013318000000","MEAN_ANOMALY":"289.1872","ARG_OF_PERICENTER":"70.9252","FILE":"3533963","TIME_SYSTEM":"UTC","INCLINATION":"53.0540","PERIAPSIS":"546.412","EPOCH":"2022-08-10T19:03:12.127968","DECAY_DATE":null,"COUNTRY_CODE":"US","APOAPSIS":"548.145","EPHEMERIS_TYPE":"0","NORAD_CAT_ID":"47554","LAUNCH_DATE":"2021-02-04","ELEMENT_SET_NO":"999","ECCENTRICITY":"0.00012510","GP_ID":"209994522"},{"TLE_LINE1":"1 47555U 21009H   22222.83535597 -.00003911  00000-0 -24392-3 0  9992","CENTER_NAME":"EARTH","RA_OF_ASC_NODE":"128.3096","OBJECT_ID":"2021-009H","PERIOD":"95.593","MEAN_MOTION_DDOT":"0.0000000000000","MEAN_MOTION":"15.06385279","MEAN_MOTION_DOT":"-0.00003911","SEMIMAJOR_AXIS":"6925.394","RCS_SIZE":"LARGE","MEAN_ELEMENT_THEORY":"SGP4","SITE":"AFETR","REF_FRAME":"TEME","CLASSIFICATION_TYPE":"U","OBJECT_NAME":"STARLINK-1954","TLE_LINE2":"2 47555  53.0542 128.3096 0001491  78.1662 281.9494 15.06385279 83825","REV_AT_EPOCH":"8382","BSTAR":"-0.00024392000000","MEAN_ANOMALY":"281.9494","OBJECT_TYPE":"PAYLOAD","TIME_SYSTEM":"UTC","INCLINATION":"53.0542","FILE":"3533963","ARG_OF_PERICENTER":"78.1662","PERIAPSIS":"546.226","EPOCH":"2022-08-10T20:02:54.755808","EPHEMERIS_TYPE":"0","COUNTRY_CODE":"US","DECAY_DATE":null,"APOAPSIS":"548.291","LAUNCH_DATE":"2021-02-04","NORAD_CAT_ID":"47555","ELEMENT_SET_NO":"999","GP_ID":"209994772","ECCENTRICITY":"0.00014910"},{"ELEMENT_SET_NO":"999","ECCENTRICITY":"0.00017940","GP_ID":"209973157","APOAPSIS":"548.522","DECAY_DATE":null,"COUNTRY_CODE":"US","EPHEMERIS_TYPE":"0","NORAD_CAT_ID":"47556","LAUNCH_DATE":"2021-02-04","PERIAPSIS":"546.037","EPOCH":"2022-08-10T06:33:28.222848","OBJECT_TYPE":"PAYLOAD","REV_AT_EPOCH":"8405","BSTAR":"-0.00045463000000","MEAN_ANOMALY":"288.9545","ARG_OF_PERICENTER":"71.1638","FILE":"3533901","INCLINATION":"53.0547","TIME_SYSTEM":"UTC","TLE_LINE2":"2 47556  53.0547 150.8511 0001794  71.1638 288.9545 15.06378458 84056","OBJECT_NAME":"STARLINK-1955","CLASSIFICATION_TYPE":"U","MEAN_ELEMENT_THEORY":"SGP4","RCS_SIZE":"LARGE","REF_FRAME":"TEME","SITE":"AFETR","MEAN_MOTION":"15.06378458","MEAN_MOTION_DOT":"-0.00007043","SEMIMAJOR_AXIS":"6925.415","RA_OF_ASC_NODE":"150.8511","CENTER_NAME":"EARTH","TLE_LINE1":"1 47556U 21009J   22222.27324332 -.00007043  00000-0 -45463-3 0  9996","MEAN_MOTION_DDOT":"0.0000000000000","PERIOD":"95.594","OBJECT_ID":"2021-009J"}];
